COSMOS 482 DESCENT CRAFT
1 06073U 72023E   25126.89335737  .01959459  12083-4  10310-3 0  9999
2 06073  51.9489 259.3349 0096176  91.4095   1.2966 16.25490217750807
